IRIDIUM 106             
1 41917U 17003A   24291.55122692  .00000191  00000+0  61010-4 0  9995
2 41917  86.3995 342.4682 0002672  94.8736 265.2765 14.34213098406117
IRIDIUM 103             
1 41918U 17003B   24291.67809661  .00001213  00000+0  42618-3 0  9995
2 41918  86.3998 342.3173 0002274 109.9446 250.1995 14.34215439406152
IRIDIUM 109             
1 41919U 17003C   24291.54490232  .00001200  00000+0  42139-3 0  9996
2 41919  86.3998 342.4222 0001822 101.8979 258.2421 14.34214515406123
IRIDIUM 102             
1 41920U 17003D   24291.65271272  .00001109  00000+0  38895-3 0  9993
2 41920  86.3999 342.3140 0002127  89.0653 271.0787 14.34219467406207
IRIDIUM 105             
1 41921U 17003E   24291.55369045  .00000597  00000+0  20598-3 0  9990
2 41921  86.3938 310.7880 0002334  94.0639 266.0823 14.34217788408044
IRIDIUM 104             
1 41922U 17003F   24291.45610301  .00001130  00000+0  39633-3 0  9998
2 41922  86.3998 342.4291 0001719 104.3597 255.7790 14.34214859406168
IRIDIUM 114             
1 41923U 17003G   24291.67174862  .00001225  00000+0  43023-3 0  9993
2 41923  86.3997 342.3247 0002343  97.7282 262.4179 14.34219863406175
IRIDIUM 108             
1 41924U 17003H   24291.49071433  .00000770  00000+0  26779-3 0  9997
2 41924  86.3930 310.7311 0002402  89.6049 270.5422 14.34219052408028
